[{"OBJECT_NAME":"STARLINK-32595","OBJECT_ID":"2024-216F","EPOCH":"2026-03-09T23:00:42.687360","MEAN_MOTION":15.27582743,"ECCENTRICITY":0.00016439,"INCLINATION":42.9992,"RA_OF_ASC_NODE":261.9959,"ARG_OF_PERICENTER":270.9756,"MEAN_ANOMALY":89.0908,"EPHEMERIS_TYPE":0,"CLASSIFICATION_TYPE":"U","NORAD_CAT_ID":62037,"ELEMENT_SET_NO":999,"REV_AT_EPOCH":7384,"BSTAR":0.00073115706,"MEAN_MOTION_DOT":0.00019914,"MEAN_MOTION_DDOT":0},{"OBJECT_NAME":"KUIPER-00266","OBJECT_ID":"2026-030AB","EPOCH":"2026-03-08T21:54:37.698048","MEAN_MOTION":15.30874235,"ECCENTRICITY":0.0022313,"INCLINATION":51.8807,"RA_OF_ASC_NODE":223.5904,"ARG_OF_PERICENTER":72.5291,"MEAN_ANOMALY":287.8129,"EPHEMERIS_TYPE":0,"CLASSIFICATION_TYPE":"U","NORAD_CAT_ID":67789,"ELEMENT_SET_NO":999,"REV_AT_EPOCH":496,"BSTAR":0.00098219753,"MEAN_MOTION_DOT":0.00029701,"MEAN_MOTION_DDOT":0}]
